{
  "type": "FeatureCollection",
  "name": "St. Ann's Campus — Ground Floor",
  "features": [
    {"type":"Feature","properties":{"id":"WALL-GF","name":"Ground Floor Boundary Wall","type":"Building Wall","floor":"Ground Floor","description":"Outer boundary wall traced from the supplied floor-plan drawing.","bounds":[0,0,4761,6945],"kind":"wall","showLabel":false},"geometry":{"type":"Point","coordinates":[2380,3473]}},
    {"type":"Feature","properties":{"id":"Q1","name":"Quadrangle 1","type":"Open Area","floor":"Ground Floor","description":"Open central area connecting surrounding classrooms and facilities.","bounds":[832,3210,2411,1860],"kind":"area","color":"#78913D"},"geometry":{"type":"Point","coordinates":[2037,4140]}},
    {"type":"Feature","properties":{"id":"Q2","name":"Quadrangle 2","type":"Open Area","floor":"Ground Floor","description":"Open central area connecting the academic spaces around Quadrangle 2.","bounds":[825,983,2289,1437],"kind":"area","color":"#78913D"},"geometry":{"type":"Point","coordinates":[1970,1702]}},
    {"type":"Feature","properties":{"id":"LOC012","name":"Wheelchair Ramp — Entrance","type":"Accessibility","floor":"Ground Floor","description":"Wheelchair-accessible ramp providing accessible entry to the campus.","bounds":[814,5073,1000,240],"kind":"path","color":"#E2C750"},"geometry":{"type":"Point","coordinates":[1314,5193]}},
    {"type":"Feature","properties":{"id":"LOC040","name":"Canteen Seating Area","type":"Seating Area","floor":"Ground Floor","description":"Seating area for students and staff to relax and enjoy meals.","bounds":[2304,1393,913,1050],"kind":"area","color":"#B8A1CF"},"geometry":{"type":"Point","coordinates":[2760,1918]}},
    {"type":"Feature","properties":{"id":"GARDEN-GF","name":"Garden","type":"Garden","floor":"Ground Floor","description":"Garden beside the main entrance zone.","bounds":[334,5889,168,91],"kind":"garden","color":"#78913D"},"geometry":{"type":"Point","coordinates":[418,5934]}},
    {"type":"Feature","properties":{"id":"ROOM-012","code":"012","name":"Room 012","type":"Room","floor":"Ground Floor","description":"Room 012, located beside Room 013.","bounds":[176,1897,344,381]},"geometry":{"type":"Point","coordinates":[348,2088]}},
    {"type":"Feature","properties":{"id":"STAGE-Q2","name":"Stage","type":"Event Space","floor":"Ground Floor","description":"Stage located in Quadrangle 2.","bounds":[836,1363,312,760],"color":"#7B5CA5"},"geometry":{"type":"Point","coordinates":[992,1743]}},
    {"type":"Feature","properties":{"id":"LOC016","name":"Stage — SALTT","type":"Event Space","floor":"Ground Floor","description":"St. Ann's Lunch Time Theater, located in Quadrangle 1 for college events, performances, and programmes.","bounds":[837,3583,411,1120],"color":"#7B5CA5"},"geometry":{"type":"Point","coordinates":[1043,4143]}},
    {"type":"Feature","properties":{"id":"SERVICE-WINDOWS","name":"Service Windows","type":"Service Counter","floor":"Ground Floor","description":"Service windows beside the reception area.","bounds":[165,6081,350,70],"color":"#E2C750"},"geometry":{"type":"Point","coordinates":[340,6116]}},
    {"type":"Feature","properties":{"id":"LOC002","name":"Reception & Seating","type":"Reception","floor":"Ground Floor","description":"Main reception area for student and visitor enquiries, assistance, and general information.","bounds":[173,6084,641,368],"color":"#B8A1CF"},"geometry":{"type":"Point","coordinates":[493,6268]}},
    {"type":"Feature","properties":{"id":"entrance","name":"Gate 1","type":"Entrance Gate","floor":"Ground Floor","description":"The main entrance gate of the building.","bounds":[585,6274,163,70],"color":"#8bc78b"},"geometry":{"type":"Point","coordinates":[666,6309]}},
    {"type":"Feature","properties":{"id":"LOC003","code":"001","name":"Dean's Room","type":"Staff Room","floor":"Ground Floor","description":"Office of the Dean for academic administration, student guidance, and official matters.","bounds":[817,5967,194,488]},"geometry":{"type":"Point","coordinates":[914,6211]}},
    {"type":"Feature","properties":{"id":"LOC004","code":"002","name":"Administrative Room","type":"Office","floor":"Ground Floor","description":"Office for college administration, records, student services, and official matters.","bounds":[169,5694,350,390]},"geometry":{"type":"Point","coordinates":[344,5889]}},
    {"type":"Feature","properties":{"id":"LOC007","code":"003","name":"IAMC","type":"Academic Office","floor":"Ground Floor","description":"Internal Academic Monitoring Cell.","bounds":[164,5312,344,381]},"geometry":{"type":"Point","coordinates":[336,5502]}},
    {"type":"Feature","properties":{"id":"LOC008","code":"004","name":"UPHAAR","type":"Academic Office","floor":"Ground Floor","description":"Unit for Planning Holistic Approach and Advancement Reforms.","bounds":[170,4931,344,381]},"geometry":{"type":"Point","coordinates":[342,5122]}},
    {"type":"Feature","properties":{"id":"LOC009","code":"005","name":"SQAC","type":"Academic Office","floor":"Ground Floor","description":"Student Quality Assurance Cell.","bounds":[178,4550,330,381]},"geometry":{"type":"Point","coordinates":[343,4741]}},
    {"type":"Feature","properties":{"id":"LOC010","code":"006","name":"IQAC","type":"Academic Office","floor":"Ground Floor","description":"International Quality Assurance Cell.","bounds":[171,4172,330,381]},"geometry":{"type":"Point","coordinates":[336,4362]}},
    {"type":"Feature","properties":{"id":"LOC013","code":"007","name":"Principal's Chamber","type":"Administration","floor":"Ground Floor","description":"Office of the Principal for academic leadership and administration.","bounds":[165,3787,350,381]},"geometry":{"type":"Point","coordinates":[340,3978]}},
    {"type":"Feature","properties":{"id":"LOC014","code":"009","name":"Announcement Room","type":"Academic Office","floor":"Ground Floor","description":"Space for important college notices and updates.","bounds":[167,3429,350,359]},"geometry":{"type":"Point","coordinates":[342,3608]}},
    {"type":"Feature","properties":{"id":"LOC015","code":"010","name":"Conference Hall","type":"Conference Hall","floor":"Ground Floor","description":"Dedicated space for meetings, discussions, presentations, and official gatherings.","bounds":[168,3070,350,359]},"geometry":{"type":"Point","coordinates":[343,3249]}},
    {"type":"Feature","properties":{"id":"LOC059","code":"013","name":"Placement Cell","type":"Placement Cell","floor":"Ground Floor","description":"Career support hub for employment opportunities, recruitment drives, and guidance.","bounds":[177,987,330,910]},"geometry":{"type":"Point","coordinates":[342,1442]}},
    {"type":"Feature","properties":{"id":"LOC058","code":"014","name":"IGNOU Study Center","type":"Study Center","floor":"Ground Floor","description":"Learning hub supporting independent and collaborative study.","bounds":[835,1142,243,220]},"geometry":{"type":"Point","coordinates":[957,1252]}},
    {"type":"Feature","properties":{"id":"LOC057","code":"015","name":"Department of Biochemistry","type":"Staff Room","floor":"Ground Floor","description":"Workspace for Biochemistry faculty.","bounds":[1078,1208,230,150]},"geometry":{"type":"Point","coordinates":[1193,1283]}},
    {"type":"Feature","properties":{"id":"LOC056","code":"016","name":"KEKULE Biochemistry Lab","type":"Laboratory","floor":"Ground Floor","description":"Specialized biochemistry laboratory for practical learning.","bounds":[167,224,790,559]},"geometry":{"type":"Point","coordinates":[562,504]}},
    {"type":"Feature","properties":{"id":"LOC055","code":"017","name":"Chemistry Lab 3","type":"Laboratory","floor":"Ground Floor","description":"Laboratory for chemistry practicals and experiments.","bounds":[959,224,339,559]},"geometry":{"type":"Point","coordinates":[1129,504]}},
    {"type":"Feature","properties":{"id":"LOC052","code":"018","name":"Heisenberg Lab","type":"Laboratory","floor":"Ground Floor","description":"Practical learning environment for experimentation and observation.","bounds":[1304,224,339,559]},"geometry":{"type":"Point","coordinates":[1474,504]}},
    {"type":"Feature","properties":{"id":"LOC053","code":"19A","name":"Distilled Water Unit","type":"Facility","floor":"Ground Floor","description":"Facility producing purified water for laboratories.","bounds":[1328,1166,200,200]},"geometry":{"type":"Point","coordinates":[1428,1266]}},
    {"type":"Feature","properties":{"id":"LOC054","code":"19A","name":"Gas Plant","type":"Utility Facility","floor":"Ground Floor","description":"Utility facility for laboratory gas supply.","bounds":[1314,1040,215,140]},"geometry":{"type":"Point","coordinates":[1421,1110]}},
    {"type":"Feature","properties":{"id":"LOC050","code":"020","name":"Madam Curie Chemistry Lab","type":"Laboratory","floor":"Ground Floor","description":"Chemistry laboratory for experiments and scientific analysis.","bounds":[2022,225,339,559]},"geometry":{"type":"Point","coordinates":[2191,505]}},
    {"type":"Feature","properties":{"id":"LOC049","code":"021","name":"St. Ann's Centre for Research & Department","type":"Research & Development Center","floor":"Ground Floor","description":"St. Ann's Centre for Research and Development.","bounds":[2360,224,350,559]},"geometry":{"type":"Point","coordinates":[2535,504]}},
    {"type":"Feature","properties":{"id":"LOC048","code":"022","name":"Department of Chemistry","type":"Staff Room","floor":"Ground Floor","description":"Staff workspace for the Chemistry department.","bounds":[2299,1028,353,348]},"geometry":{"type":"Point","coordinates":[2475,1202]}},
    {"type":"Feature","properties":{"id":"LOC047","code":"023","name":"Room 023","type":"Room","floor":"Ground Floor","description":"Campus room 023.","bounds":[2705,223,350,559]},"geometry":{"type":"Point","coordinates":[2880,503]}},
    {"type":"Feature","properties":{"id":"LOC046","code":"024","name":"Department of Nutrition","type":"Department","floor":"Ground Floor","description":"Department for nutrition and food science learning.","bounds":[3049,218,344,559]},"geometry":{"type":"Point","coordinates":[3221,498]}},
    {"type":"Feature","properties":{"id":"LOC044","code":"025","name":"Gopalan Lab 1","type":"Laboratory","floor":"Ground Floor","description":"Nutrition and food science practical learning space.","bounds":[3755,230,705,610]},"geometry":{"type":"Point","coordinates":[4108,535]}},
    {"type":"Feature","properties":{"id":"LOC043","code":"026","name":"Ahar Nilayam Lab","type":"Laboratory","floor":"Ground Floor","description":"Laboratory for student experiments and practical sessions.","bounds":[3397,225,370,550]},"geometry":{"type":"Point","coordinates":[3582,500]}},
    {"type":"Feature","properties":{"id":"LOC042","code":"028","name":"Department of Genetics","type":"Laboratory","floor":"Ground Floor","description":"McClintock's genetics laboratory.","bounds":[3771,846,691,370]},"geometry":{"type":"Point","coordinates":[4117,1031]}},
    {"type":"Feature","properties":{"id":"LOC041","code":"029","name":"Poshana","type":"Student Cooking Area","floor":"Ground Floor","description":"Food preparation and cooking skills area.","bounds":[3763,1227,691,370]},"geometry":{"type":"Point","coordinates":[4108,1412]}},
    {"type":"Feature","properties":{"id":"LOC018","code":"031","name":"Department of Biotechnology","type":"Academic Department","floor":"Ground Floor","description":"Department for Biotechnology teaching and practical training.","bounds":[832,2437,344,381]},"geometry":{"type":"Point","coordinates":[1004,2627]}},
    {"type":"Feature","properties":{"id":"LOC019","code":"032","name":"Department of Zoology Lab 1","type":"Laboratory","floor":"Ground Floor","description":"Zoology practical laboratory.","bounds":[1180,2443,344,370]},"geometry":{"type":"Point","coordinates":[1352,2628]}},
    {"type":"Feature","properties":{"id":"LOC020","code":"033","name":"Zoology Museum Animal","type":"Animal Museum Laboratory","floor":"Ground Floor","description":"Zoology museum with academic animal specimens and exhibits.","bounds":[1530,2440,330,370]},"geometry":{"type":"Point","coordinates":[1695,2625]}},
    {"type":"Feature","properties":{"id":"LOC021","code":"034","name":"Department of Zoology Staff Room","type":"Staff Room","floor":"Ground Floor","description":"Staff room for faculty members of the Department of Zoology.","bounds":[1867,2441,339,381]},"geometry":{"type":"Point","coordinates":[2037,2632]}},
    {"type":"Feature","properties":{"id":"LOC022","code":"035","name":"Biochemistry Lehninger's Lab","type":"Laboratory","floor":"Ground Floor","description":"Laboratory for biochemistry practicals and experiments.","bounds":[2216,2437,420,381]},"geometry":{"type":"Point","coordinates":[2426,2627]}},
    {"type":"Feature","properties":{"id":"LOC023","code":"036","name":"DIZA — Zoology Lab II","type":"Laboratory","floor":"Ground Floor","description":"Digital Innovation of Zoology at St. Ann's. Laboratory for zoology practicals and biological studies.","bounds":[2628,2437,420,381]},"geometry":{"type":"Point","coordinates":[2838,2627]}},
    {"type":"Feature","properties":{"id":"LOC024","code":"037","name":"Classroom","type":"Classroom","floor":"Ground Floor","description":"Classroom for lectures and academic activities.","bounds":[3671,3239,350,381]},"geometry":{"type":"Point","coordinates":[3846,3430]}},
    {"type":"Feature","properties":{"id":"LOC025","code":"038","name":"Classroom","type":"Classroom","floor":"Ground Floor","description":"Classroom for lectures and academic activities.","bounds":[3677,3618,339,381]},"geometry":{"type":"Point","coordinates":[3846,3809]}},
    {"type":"Feature","properties":{"id":"LOC026","code":"039","name":"Sports Room","type":"Sports Room","floor":"Ground Floor","description":"Space supporting sports activities and equipment management.","bounds":[3669,4002,350,1403]},"geometry":{"type":"Point","coordinates":[3844,4704]}},
    {"type":"Feature","properties":{"id":"LOC036","code":"048","name":"Classroom","type":"Classroom","floor":"Ground Floor","description":"Classroom for lectures and academic activities.","bounds":[1460,5310,360,314]},"geometry":{"type":"Point","coordinates":[1640,5467]}},
    {"type":"Feature","properties":{"id":"LOC037","code":"049","name":"Classroom","type":"Classroom","floor":"Ground Floor","description":"Classroom for lectures and academic activities.","bounds":[1820,5311,440,320]},"geometry":{"type":"Point","coordinates":[2040,5471]}},
    {"type":"Feature","properties":{"id":"LOC031","code":"050","name":"Classroom","type":"Classroom","floor":"Ground Floor","description":"Classroom for lectures and academic activities.","bounds":[2258,5312,344,320]},"geometry":{"type":"Point","coordinates":[2430,5472]}},
    {"type":"Feature","properties":{"id":"LOC030","code":"051","name":"Faculty of Social Science","type":"Staff Room","floor":"Ground Floor","description":"Faculty space for Social Science educators, beside Staircase D.","bounds":[2598,5312,320,320]},"geometry":{"type":"Point","coordinates":[2758,5472]}},
    {"type":"Feature","properties":{"id":"LOC011","name":"Gnanama Hall","type":"Seminar Hall","floor":"Ground Floor","description":"Multipurpose hall for seminars, meetings, workshops and cultural programmes.","bounds":[818,5311,641,320],"color":"#d5b4e8"},"geometry":{"type":"Point","coordinates":[1138,5471]}},
    {"type":"Feature","properties":{"id":"LOC028","name":"Physical Education Staff Room","type":"Staff Room","floor":"Ground Floor","description":"Faculty facility for Physical Education coordination.","bounds":[3108,5421,140,209]},"geometry":{"type":"Point","coordinates":[3178,5525]}},
    {"type":"Feature","properties":{"id":"LOC033","name":"Sick Room","type":"Medical Facility","floor":"Ground Floor","description":"Wellness space for basic care and recovery.","bounds":[3676,5406,495,390],"color":"#f4b9b1"},"geometry":{"type":"Point","coordinates":[3924,5601]}},
    {"type":"Feature","properties":{"id":"LOC034","name":"Prayer Room","type":"Prayer Room","floor":"Ground Floor","description":"Quiet space for prayer and reflection.","bounds":[2991,6162,244,284],"color":"#e5d4a2"},"geometry":{"type":"Point","coordinates":[3113,6304]}},
    {"type":"Feature","properties":{"id":"LOC035","name":"Stationery","type":"Stationery","floor":"Ground Floor","description":"Campus store for stationery and academic supplies.","bounds":[4169,6144,290,320],"color":"#e5d4a2"},"geometry":{"type":"Point","coordinates":[4314,6304]}},
    {"type":"Feature","properties":{"id":"LOC038","name":"Cafeteria","type":"Canteen","floor":"Ground Floor","description":"Campus dining area for food, snacks and refreshments.","bounds":[4022,3237,435,2160],"color":"#e9b7a1"},"geometry":{"type":"Point","coordinates":[4240,4317]}},
    {"type":"Feature","properties":{"id":"LOC039","name":"Ladies Washroom","type":"Washroom","floor":"Ground Floor","description":"Washroom facility for female students and staff.","bounds":[4005,1933,453,1059],"color":"#a7c9ed"},"geometry":{"type":"Point","coordinates":[4231,2463]}},
    {"type":"Feature","properties":{"id":"LOC027","name":"Gate 2","type":"Second Entrance Gate","floor":"Ground Floor","description":"Secondary campus entrance.","bounds":[3316,5655,270,216],"color":"#78913D"},"geometry":{"type":"Point","coordinates":[3451,5763]}},
    {"type":"Feature","properties":{"id":"LOC061","name":"Gate 3","type":"Third Entrance Gate","floor":"Ground Floor","description":"Campus entry and exit point.","bounds":[165,2710,350,181],"color":"#78913D"},"geometry":{"type":"Point","coordinates":[340,2801]}},
    {"type":"Feature","properties":{"id":"LOC005","name":"Staircase A","type":"Staircase","floor":"Ground Floor","description":"Goes to the 1st Floor and 2nd Floor.","bounds":[1017,5872,194,280],"color":"#E2C750"},"geometry":{"type":"Point","coordinates":[1114,6012]}},
    {"type":"Feature","properties":{"id":"LOC029","name":"PG Staircase","type":"Staircase","floor":"Ground Floor","description":"Goes to the 1st Floor, 2nd Floor, and PG floors.","bounds":[4245,5940,260,160],"color":"#E2C750"},"geometry":{"type":"Point","coordinates":[4375,6020]}},
    {"type":"Feature","properties":{"id":"LOC060","name":"Staircase C","type":"Staircase","floor":"Ground Floor","description":"Goes to the 1st Floor and 2nd Floor.","bounds":[177,2279,230,140],"color":"#E2C750"},"geometry":{"type":"Point","coordinates":[292,2349]}},
    {"type":"Feature","properties":{"id":"LOC045","name":"Staircase B","type":"Staircase","floor":"Ground Floor","description":"First Quadrangle staircase. Goes to the 1st Floor, 2nd Floor, and 3rd Floor.","bounds":[2921,5242,330,388],"color":"#E2C750"},"geometry":{"type":"Point","coordinates":[3086,5436]}},
    {"type":"Feature","properties":{"id":"LOC051","name":"Staircase E","type":"Staircase","floor":"Ground Floor","description":"Second Quadrangle staircase. Goes to the 1st Floor and 2nd Floor.","bounds":[1646,221,366,338],"color":"#E2C750"},"geometry":{"type":"Point","coordinates":[1829,390]}},
    {"type":"Feature","properties":{"id":"STAIR-D-022","name":"Staircase D","type":"Staircase","floor":"Ground Floor","description":"Second Quadrangle staircase. Goes to the 1st Floor, 2nd Floor, and 3rd Floor.","bounds":[2783,1063,182,290],"color":"#E2C750"},"geometry":{"type":"Point","coordinates":[2874,1208]}},
    {"type":"Feature","properties":{"id":"LOC006","name":"Lift 1","type":"Lift","floor":"Ground Floor","description":"Lift near Reception providing access to the 1st and 2nd Floors.","bounds":[1211,5636,190,240],"color":"#E2C750"},"geometry":{"type":"Point","coordinates":[1306,5756]}},
    {"type":"Feature","properties":{"id":"LOC032","name":"Lift 2","type":"Lift","floor":"Ground Floor","description":"Lift providing access between the Ground, 1st, 2nd and 3rd Floors.","bounds":[1815,5070,196,240],"color":"#E2C750"},"geometry":{"type":"Point","coordinates":[1913,5190]}}
  ]
}
